EYESAT-1 (AO-27)        
1 22825U 93061C   17349.13355844 -.00000003  00000-0  16703-4 0  9990
2 22825  98.8381 317.1681 0008733 156.8701 203.2875 14.30016428262998
CUTE-1 (CO-55)          
1 27844U 03031E   17350.02678608  .00000064  00000-0  48742-4 0  9994
2 27844  98.6885 356.3795 0009846 175.6344 184.4921 14.22082272750164
CUBESAT XI-IV (CO-57)   
1 27848U 03031J   17349.93539176  .00000054  00000-0  44441-4 0  9993
2 27848  98.6975 356.6220 0009535 185.6946 174.4124 14.21690841749997
CUBESAT XI 5            
1 28895U 05043F   17349.90946040  .00000155  00000-0  38687-4 0  9997
2 28895  97.8837 144.0744 0015584 290.3161  69.6367 14.63485951646835
CUTE-1.7+APD II (CO-65) 
1 32785U 08021C   17349.81234563  .00000271  00000-0  35147-4 0  9996
2 32785  97.5552   5.6841 0011676 288.6203  71.3746 14.88027001521900
COMPASS-1               
1 32787U 08021E   17350.14572471  .00000596  00000-0  62685-4 0  9996
2 32787  97.5432  15.9593 0011182 247.9296 112.0737 14.92850855522640
AAUSAT-II               
1 32788U 08021F   17350.14076223  .00000291  00000-0  32287-4 0  9998
2 32788  97.5407  19.1056 0010693 237.9686 122.0496 14.94150904522846
DELFI-C3 (DO-64)        
1 32789U 08021G   17349.70951168  .00002028  00000-0  14474-3 0  9996
2 32789  97.5377  43.9684 0012322 198.0082 162.0710 15.05584982524073
CANX-2                  
1 32790U 08021H   17350.09523466  .00000236  00000-0  31578-4 0  9992
2 32790  97.5544   4.2169 0012359 289.6571  70.3312 14.87739689521889
SEEDS II (CO-66)        
1 32791U 08021J   17350.53331932  .00000465  00000-0  53122-4 0  9990
2 32791  97.5488  11.2748 0011931 266.1391  93.8463 14.90419506522305
SWISSCUBE               
1 35932U 09051B   17350.17278624  .00000144  00000-0  43568-4 0  9999
2 35932  98.5195 132.2261 0008497  57.6790 302.5229 14.56099374436802
BEESAT                  
1 35933U 09051C   17349.93859830  .00000131  00000-0  40446-4 0  9994
2 35933  98.5234 133.4157 0006875  71.0870 289.1072 14.56209410436799
ITUPSAT 1               
1 35935U 09051E   17349.89028326  .00000078  00000-0  28993-4 0  9992
2 35935  98.5344 133.6209 0009130  65.0148 295.1996 14.55393790436630
TISAT 1                 
1 36799U 10035E   17350.40865421  .00000348  00000-0  41551-4 0  9994
2 36799  98.0828 117.1030 0013724  89.5730 270.7060 14.90638424402923
M-CUBED & EXP-1 PRIME   
1 37855U 11061F   17350.14849465  .00000936  00000-0  56499-4 0  9999
2 37855 101.7167 314.0611 0177914 263.7076  94.3845 15.03902620334134
HORYU 2                 
1 38340U 12025D   17349.90987431  .00000265  00000-0  47039-4 0  9993
2 38340  98.3754   0.2494 0012794  75.9192 284.3437 14.75465942289671
STRAND-1                
1 39090U 13009E   17350.14962977  .00000038  00000-0  28751-4 0  9993
2 39090  98.5350 193.7281 0010144 117.5600 242.6616 14.35001514251575
BRITE-AUSTRIA           
1 39091U 13009F   17350.57497810  .00000021  00000-0  22840-4 0  9995
2 39091  98.5318 193.4792 0011412 123.6600 236.5675 14.35053799251659
UNIBRITE                
1 39092U 13009G   17349.75352699  .00000010  00000-0  18809-4 0  9997
2 39092  98.5329 192.3421 0010348 119.5654 240.6564 14.34927661251503
AIST-2                  
1 39133U 13015D   17350.51793717  .00000176  00000-0  25059-4 0  9994
2 39133  64.8743  69.2740 0035902 251.4530 108.2688 15.04449920255722
SOMP                    
1 39134U 13015E   17349.50219498  .00001712  00000-0  91188-4 0  9994
2 39134  64.8644   0.8525 0030054 236.0908 123.7360 15.18618402257006
BEESAT-3                
1 39135U 13015F   17349.49271921  .00001177  00000-0  70098-4 0  9994
2 39135  64.8696  11.9053 0031950 256.9348 102.8210 15.16231736256794
BEESAT-2                
1 39136U 13015G   17350.19083756  .00001144  00000-0  69356-4 0  9990
2 39136  64.8701  11.9590 0032532 257.8935 101.8545 15.15720930256852
NEE-01 PEGASUS          
1 39151U 13018B   17350.20089498  .00000189  00000-0  32147-4 0  9997
2 39151  97.9811  80.5581 0017274 176.7731 183.3595 14.79826189250451
CUBEBUG-1 (CAPITAN BETO)
1 39153U 13018D   17350.20083584  .00000249  00000-0  39602-4 0  9999
2 39153  97.9839  81.5245 0017238 174.7260 185.4137 14.80306690250521
ESTCUBE 1               
1 39161U 13021C   17350.44887087  .00000193  00000-0  38709-4 0  9993
2 39161  98.0201  74.0102 0008122 284.2944  75.7323 14.71995935247566
POPACS 1                
1 39268U 13055D   17349.84057548  .00003435  00000-0  96254-4 0  9992
2 39268  81.0007 178.3798 0644417  46.2184 319.0484 14.32787091218181
POPACS 2                
1 39269U 13055E   17350.56286681  .00002305  00000-0  65703-4 0  9996
2 39269  81.0142 195.9033 0696403  91.6310 276.4696 14.21228393217190
POPACS 3                
1 39270U 13055F   17349.60154069  .00002140  00000-0  65894-4 0  9993
2 39270  81.0165 206.9678 0722333 124.5911 242.5596 14.14080751195701
ZACUBE-1 (TSHEPISOSAT)  
1 39417U 13066B   17350.13691023  .00000271  00000-0  40622-4 0  9999
2 39417  97.6087  23.3478 0060002  35.8513 324.6704 14.80841266219708
WNISAT-1                
1 39423U 13066H   17350.50146081  .00000106  00000-0  31033-4 0  9999
2 39423  97.7031 323.9729 0174360 227.9774 130.6475 14.52907696215704
TRITON-1                
1 39427U 13066M   17350.51386411  .00000242  00000-0  46399-4 0  9999
2 39427  97.6360 353.6367 0115392 124.2801 236.9396 14.67580590217788
GOMX 1                  
1 39430U 13066Q   17350.47065126  .00000178  00000-0  41180-4 0  9996
2 39430  97.6782 335.7389 0151479 186.8936 173.0184 14.58989801216518
BRITE-PL                
1 39431U 13066R   17349.92872975  .00000021  00000-0  15383-4 0  9996
2 39431  97.7320 311.7972 0201176 273.3284  84.4916 14.46897317214533
HUMSAT-D                
1 39433U 13066T   17349.85626729  .00000557  00000-0  60487-4 0  9993
2 39433  97.6309  47.4057 0030295 335.3009  24.6757 14.91686059219919
EAGLE 2                 
1 39436U 13066W   17350.10642755  .00045609  00000-0  75131-3 0  9991
2 39436  97.7123 106.6592 0006404 146.9740 213.1913 15.52174642224702
CUBEBUG-2 (LO-74)       
1 39440U 13066AA  17350.12385383  .00000269  00000-0  44421-4 0  9991
2 39440  97.6132  11.1375 0081968  70.3927 290.6109 14.75578574218920
NEE-02 KRYSAOR          
1 39441U 13066AB  17350.03231962  .00000187  00000-0  33533-4 0  9996
2 39441  97.6122   9.4957 0083445  74.8913 286.1510 14.74710360218782
FUNCUBE-1 (AO-73)       
1 39444U 13066AE  17349.68742004  .00000341  00000-0  48563-4 0  9993
2 39444  97.6101  24.2104 0059074  33.4706 327.0219 14.81600270218487
UWE-3                   
1 39446U 13066AG  17349.85077694  .00000269  00000-0  42441-4 0  9998
2 39446  97.6097  16.6387 0071470  54.3394 306.4443 14.78111848217449
BRITE-TORONTO           
1 40020U 14033L   17350.56338031  .00000092  00000-0  23918-4 0  9990
2 40020  97.8081 212.8781 0088894 106.3489 254.7513 14.66451386186824
DUCHIFAT-1              
1 40021U 14033M   17349.88671390  .00000433  00000-0  50596-4 0  9993
2 40021  97.9166 263.2784 0014372  64.8646 295.4061 14.90135889189654
FLOCK 1C-10             
1 40023U 14033P   17350.19240427  .00001203  00000-0  13352-3 0  9998
2 40023  97.9196 262.4231 0014085  68.6671 291.6081 14.89051584189587
NANOSATC-BR1            
1 40024U 14033Q   17350.30884102  .00000475  00000-0  55889-4 0  9998
2 40024  97.9113 262.2873 0013609  65.2696 294.9936 14.89425344189650
QB50P1                  
1 40025U 14033R   17350.18592310  .00000322  00000-0  40519-4 0  9997
2 40025  97.9085 260.9223 0013859  69.0229 291.2469 14.88593803189560
FLOCK 1C-7              
1 40026U 14033S   17350.32074160  .00001076  00000-0  11796-3 0  9993
2 40026  97.9214 263.5226 0012306  65.7468 294.5066 14.89790665189667
FLOCK 1C-1              
1 40027U 14033T   17350.35440632  .00000510  00000-0  60039-4 0  9995
2 40027  97.9191 262.8659 0014002  66.2063 294.0624 14.89110164189627
POPSAT-HIP-1            
1 40028U 14033U   17350.43550564  .00000178  00000-0  25189-4 0  9998
2 40028  97.9118 261.5012 0015502  65.6288 294.6527 14.88453905189589
FLOCK 1C-2              
1 40029U 14033V   17350.44811485  .00001202  00000-0  13307-3 0  9999
2 40029  97.9209 262.8032 0015128  63.6157 296.6611 14.89148876189624
FLOCK 1C-4              
1 40031U 14033X   17350.34892155  .00000598  00000-0  69553-4 0  9996
2 40031  97.9182 262.6501 0015557  61.8091 298.4677 14.88974496189591
QB50P2                  
1 40032U 14033Y   17349.81711356  .00000324  00000-0  41229-4 0  9997
2 40032  97.9048 259.4765 0013265  65.9699 294.2904 14.88144359189451
FLOCK 1C-11             
1 40033U 14033Z   17350.42938503  .00000097  00000-0  15830-4 0  9998
2 40033  97.9222 264.5878 0013540  55.9340 304.3127 14.90380136189735
ANTELSAT                
1 40034U 14033AA  17350.24254692  .00000295  00000-0  51341-4 0  9996
2 40034  97.8344 228.2764 0060247  67.6004 293.1572 14.73827304187746
FLOCK 1C-9              
1 40035U 14033AB  17350.36312216  .00000722  00000-0  82352-4 0  9998
2 40035  97.9233 263.1657 0013002  57.4485 302.7976 14.89183866189619
FLOCK 1C-6              
1 40036U 14033AC  17349.96806220  .00000411  00000-0  49311-4 0  9999
2 40036  97.9241 263.0287 0013068  57.9095 302.3409 14.89287319189571
PERSEUS-M2              
1 40037U 14033AD  17350.44060457  .00000104  00000-0  18101-4 0  9991
2 40037  97.9054 258.1768 0015791  70.4257 289.8662 14.86303761189384
FLOCK 1C-5              
1 40038U 14033AE  17350.17941811  .00000697  00000-0  79535-4 0  9999
2 40038  97.9223 263.0071 0015380  57.6250 302.6478 14.89258633189591
PERSEUS-M1              
1 40039U 14033AF  17350.21712989  .00000099  00000-0  17687-4 0  9993
2 40039  97.9058 257.4229 0015607  67.7554 292.5315 14.85926464189307
FLOCK 1C-8              
1 40040U 14033AG  17350.46877812  .00001272  00000-0  13363-3 0  9999
2 40040  97.9276 266.0394 0014022  42.3781 317.8465 14.91221571189795
